{
  "Store/create": [
    {
      "storeOwnerId": 1,
      "nameEn": "Game Store",
      "nameTh": "ร้านา",
      "phoneNumber": "0982488556",
      "foodType": "International",
      "aboutUs": "This is a food restaurant. HAVE SOME FOOD",
      "address": "this is the address",
      "location": "Google Map link"
    },
    {
      "storeOwnerId": 2,
      "nameEn": "Cheap Korean",
      "nameTh": "ร้านาCheap Korean",
      "phoneNumber": "0982488556",
      "foodType": "Korean",
      "aboutUs": "This is a Korean restaurant. HAVE SOME FOOD",
      "address": "this is the address",
      "location": "Google Map link",
      "image": "\"hello\"",
      "district": "Pathumwan",
      "numCoupons": 0,
      "numOrders": 0,
      "numProducts": 0,
      "numReviews": 0,
      "province": "Bangkok",
      "rating": 0,
      "subDistrict": "somewhere",
      "coordinate": "13.732753, 100.530008"
    },
    {
      "storeOwnerId": 3,
      "nameEn": "Print",
      "nameTh": "อาทิตย์",
      "phoneNumber": "0982475661",
      "foodType": "Korean",
      "aboutUs": "we are korean",
      "location": "Chaing Mai",
      "image": "\"hello\"",
      "district": "Hang Dong",
      "numCoupons": 0,
      "numOrders": 0,
      "numProducts": 0,
      "numReviews": 0,
      "province": "Chaing Mai",
      "rating": 0,
      "subDistrict": "Pa Daet",
      "coordinate": "13.732453, 100.530708"
    },
    {
      "storeOwnerId": 5,
      "nameEn": "Game",
      "nameTh": "มะลิ",
      "phoneNumber": "0987865886",
      "foodType": "Japanese",
      "aboutUs": "we are Japanese",
      "location": "Bangkok",
      "image": "\"hello\"",
      "district": "Pathumwan",
      "numCoupons": 0,
      "numOrders": 0,
      "numProducts": 0,
      "numReviews": 0,
      "province": "Bangkok",
      "rating": 0,
      "subDistrict": "somewhere",
      "coordinate": "13.732453, 100.530708"
    },
    {
      "storeOwnerId": 5,
      "nameEn": "Game",
      "nameTh": "มะลิ",
      "phoneNumber": "28347982374",
      "foodType": "Japanese",
      "aboutUs": "we are Japanese",
      "location": "Bangkok",
      "image": "\"hello\"",
      "district": "Pathumwan",
      "numCoupons": 0,
      "numOrders": 0,
      "numProducts": 0,
      "numReviews": 0,
      "province": "Bangkok",
      "rating": 0,
      "subDistrict": "somewhere"
    },
    {}
  ]
}
